NORAD_CAT_ID,OBJECT_NAME,OBJECT_TYPE,EPOCH,MEAN_MOTION,ECCENTRICITY,INCLINATION,RA_OF_ASC_NODE,ARG_OF_PERICENTER,MEAN_ANOMALY,BSTAR,MEAN_MOTION_DOT,MEAN_MOTION_DDOT,TLE_LINE0,TLE_LINE1,TLE_LINE2,SEMIMAJOR_AXIS,PERIOD,APOGEE,PERIGEE,DECAYED
51743.0,STARLINK-3512,PAYLOAD,2024-05-17 23:12:46,15.08835974,0.0001253,53.2166,35.1421,84.3417,275.7718,4.4395e-05,4.19e-06,0.0,0 STARLINK-3512,1 51743U 22016AF  24138.96720282  .00000419  00000-0  44395-4 0  9998,2 51743  53.2166  35.1421 0001253  84.3417 275.7718 15.08835974123956,6917.893,95.438,540.625,538.891,0.0
51743.0,STARLINK-3512,PAYLOAD,2024-05-18 00:48:09,15.08847595,0.0001341,53.2176,34.8459,78.939,281.1753,0.00025425,3.762e-05,0.0,0 STARLINK-3512,1 51743U 22016AF  24139.03343932  .00003762  00000-0  25425-3 0  9996,2 51743  53.2176  34.8459 0001341  78.9390 281.1753 15.08847595125102,6917.857,95.437,540.65,538.794,0.0
51743.0,STARLINK-3512,PAYLOAD,2024-05-18 10:20:28,15.08845343,0.0001241,53.2168,33.0585,83.2736,276.8397,0.00019102,2.754e-05,0.0,0 STARLINK-3512,1 51743U 22016AF  24139.43087968  .00002754  00000-0  19102-3 0  9999,2 51743  53.2168  33.0585 0001241  83.2736 276.8397 15.08845343124020,6917.864,95.437,540.588,538.871,0.0
51743.0,STARLINK-3512,PAYLOAD,2024-05-18 23:03:32,15.08860859,0.0001298,53.2151,30.6824,77.9215,282.1922,0.0005802,8.963e-05,0.0,0 STARLINK-3512,1 51743U 22016AF  24139.96079329  .00008963  00000-0  58020-3 0  9999,2 51743  53.2151  30.6824 0001298  77.9215 282.1922 15.08860859124107,6917.817,95.436,540.58,538.784,0.0
51743.0,STARLINK-3512,PAYLOAD,2024-05-19 21:18:57,15.08830349,0.0001399,53.2173,26.5194,108.1228,251.9916,-2.79e-05,-7.32e-06,0.0,0 STARLINK-3512,1 51743U 22016AF  24140.88816693 -.00000732  00000-0 -27900-4 0  9997,2 51743  53.2173  26.5194 0001399 108.1228 251.9916 15.08830349125387,6917.91,95.438,540.743,538.807,0.0
51743.0,STARLINK-3512,PAYLOAD,2024-05-19 22:54:20,15.08826733,0.0001515,53.2181,26.2208,108.2365,251.8792,-0.00025211,-4.297e-05,0.0,0 STARLINK-3512,1 51743U 22016AF  24140.95440704 -.00004297  00000-0 -25211-3 0  9993,2 51743  53.2181  26.2208 0001515 108.2365 251.8792 15.08826733124250,6917.921,95.438,540.834,538.738,0.0
51743.0,STARLINK-3512,PAYLOAD,2024-05-20 21:09:44,15.08839771,0.000139,53.2169,22.0594,86.1904,273.9247,0.00019643,2.84e-05,0.0,0 STARLINK-3512,1 51743U 22016AF  24141.88177079  .00002840  00000-0  19643-3 0  9990,2 51743  53.2169  22.0594 0001390  86.1904 273.9247 15.08839771125530,6917.881,95.438,540.708,538.785,0.0
51743.0,STARLINK-3512,PAYLOAD,2024-05-21 21:00:32,15.08842401,0.0001278,53.2175,17.5992,98.6742,261.4395,0.00034808,5.256e-05,0.0,0 STARLINK-3512,1 51743U 22016AF  24142.87537517  .00005256  00000-0  34808-3 0  9991,2 51743  53.2175  17.5992 0001278  98.6742 261.4395 15.08842401125687,6917.873,95.437,540.622,538.854,0.0
51743.0,STARLINK-3512,PAYLOAD,2024-05-21 22:35:55,15.08845424,0.0001301,53.2178,17.3023,100.5086,259.6052,0.00039922,6.072e-05,0.0,0 STARLINK-3512,1 51743U 22016AF  24142.94161439  .00006072  00000-0  39922-3 0  9994,2 51743  53.2178  17.3023 0001301 100.5086 259.6052 15.08845424124556,6917.864,95.437,540.629,538.829,0.0
51743.0,STARLINK-3512,PAYLOAD,2024-05-22 01:46:41,15.08848136,0.0001444,53.2183,16.7067,102.6799,257.4354,0.00068776,0.00010677,0.0,0 STARLINK-3512,1 51743U 22016AF  24143.07409268  .00010677  00000-0  68776-3 0  9999,2 51743  53.2183  16.7067 0001444 102.6799 257.4354 15.08848136124571,6917.856,95.437,540.719,538.722,0.0
51743.0,STARLINK-3512,PAYLOAD,2024-05-22 20:51:19,15.08842838,0.0001447,53.2174,13.1369,116.1383,243.9759,8.0714e-05,9.97e-06,0.0,0 STARLINK-3512,1 51743U 22016AF  24143.86897179  .00000997  00000-0  80714-4 0  9999,2 51743  53.2174  13.1369 0001447 116.1383 243.9759 15.08842838124694,6917.872,95.437,540.738,538.736,0.0
51743.0,STARLINK-3512,PAYLOAD,2024-05-23 20:42:06,15.08843988,0.0001313,53.2179,8.675,100.8485,259.2655,8.5047e-05,1.066e-05,0.0,0 STARLINK-3512,1 51743U 22016AF  24144.86257228  .00001066  00000-0  85047-4 0  9997,2 51743  53.2179   8.6750 0001313 100.8485 259.2655 15.08843988124846,6917.868,95.437,540.642,538.825,0.0
51743.0,STARLINK-3512,PAYLOAD,2024-05-23 23:52:52,15.08849515,0.0001291,53.2174,8.0852,105.2417,254.8718,0.00019477,2.814e-05,0.0,0 STARLINK-3512,1 51743U 22016AF  24144.99505023  .00002814  00000-0  19477-3 0  9995,2 51743  53.2174   8.0852 0001291 105.2417 254.8718 15.08849515126000,6917.851,95.437,540.609,538.823,0.0
51743.0,STARLINK-3512,PAYLOAD,2024-05-24 18:57:29,15.08842385,0.0001844,53.2172,4.5117,147.5872,212.5234,0.00010703,1.416e-05,0.0,0 STARLINK-3512,1 51743U 22016AF  24145.78992975  .00001416  00000-0  10703-3 0  9999,2 51743  53.2172   4.5117 0001844 147.5872 212.5234 15.08842385126126,6917.873,95.437,541.014,538.462,0.0
51743.0,STARLINK-3512,PAYLOAD,2024-05-24 22:08:16,15.08842872,0.0002032,53.2167,3.9176,54.173,305.9451,0.00019401,2.801e-05,0.0,0 STARLINK-3512,1 51743U 22016AF  24145.92241689  .00002801  00000-0  19401-3 0  9997,2 51743  53.2167   3.9176 0002032  54.1730 305.9451 15.08842872125009,6917.872,95.437,541.142,538.331,0.0
51743.0,STARLINK-3512,PAYLOAD,2024-05-25 07:40:35,15.08829427,8.63e-05,53.2166,2.133,117.4851,242.6229,-0.00013161,-2.381e-05,0.0,0 STARLINK-3512,1 51743U 22016AF  24146.31985559 -.00002381  00000-0 -13161-3 0  9994,2 51743  53.2166   2.1330 0000863 117.4851 242.6229 15.08829427126202,6917.913,95.438,540.375,539.181,0.0
51743.0,STARLINK-3512,PAYLOAD,2024-05-25 14:02:07,15.08846451,6.6e-05,53.2159,0.9462,109.8911,250.2152,0.00011089,1.478e-05,0.0,0 STARLINK-3512,1 51743U 22016AF  24146.58481090  .00001478  00000-0  11089-3 0  9995,2 51743  53.2159   0.9462 0000660 109.8911 250.2152 15.08846451125107,6917.861,95.437,540.182,539.269,0.0
51743.0,STARLINK-3512,PAYLOAD,2024-05-25 20:23:40,15.088399,8.92e-05,53.2165,359.757,80.7831,279.3263,4.003e-05,3.49e-06,0.0,0 STARLINK-3512,1 51743U 22016AF  24146.84977482  .00000349  00000-0  40030-4 0  9994,2 51743  53.2165 359.7570 0000892  80.7831 279.3263 15.08839900126280,6917.881,95.438,540.363,539.129,0.0
51743.0,STARLINK-3512,PAYLOAD,2024-05-25 21:59:03,15.0884152,9.47e-05,53.2167,359.4591,87.8299,272.2801,8.0969e-05,1.001e-05,0.0,0 STARLINK-3512,1 51743U 22016AF  24146.91601432  .00001001  00000-0  80969-4 0  9992,2 51743  53.2167 359.4591 0000947  87.8299 272.2801 15.08841520125155,6917.876,95.437,540.396,539.086,0.0
51743.0,STARLINK-3512,PAYLOAD,2024-05-26 20:14:27,15.0884697,9.83e-05,53.2172,355.2975,104.0405,256.0696,0.0001061,1.402e-05,0.0,0 STARLINK-3512,1 51743U 22016AF  24147.84337443  .00001402  00000-0  10610-3 0  9993,2 51743  53.2172 355.2975 0000983 104.0405 256.0696 15.08846970125293,6917.859,95.437,540.404,539.044,0.0
51743.0,STARLINK-3512,PAYLOAD,2024-05-27 07:22:09,15.08847008,0.0001119,53.2159,353.2185,63.5478,296.5629,0.00023489,3.453e-05,0.0,0 STARLINK-3512,1 51743U 22016AF  24148.30705618  .00003453  00000-0  23489-3 0  9994,2 51743  53.2159 353.2185 0001119  63.5478 296.5629 15.08847008126503,6917.859,95.437,540.498,538.95,0.0
51743.0,STARLINK-3512,PAYLOAD,2024-05-27 20:05:14,15.08843715,0.0001159,53.218,350.8381,77.7651,282.3471,0.00013498,1.861e-05,0.0,0 STARLINK-3512,1 51743U 22016AF  24148.83697747  .00001861  00000-0  13498-3 0  9995,2 51743  53.2180 350.8381 0001159  77.7651 282.3471 15.08843715125443,6917.869,95.437,540.536,538.932,0.0
51743.0,STARLINK-3512,PAYLOAD,2024-05-28 19:56:01,15.088423,0.0001267,53.2192,346.3785,105.1592,254.954,6.2398e-05,7.05e-06,0.0,0 STARLINK-3512,1 51743U 22016AF  24149.83057666  .00000705  00000-0  62398-4 0  9996,2 51743  53.2192 346.3785 0001267 105.1592 254.9540 15.08842300125591,6917.873,95.437,540.615,538.862,0.0
51743.0,STARLINK-3512,PAYLOAD,2024-05-28 23:06:47,15.08843975,0.0001161,53.2183,345.7809,98.6846,261.4278,7.4217e-05,8.94e-06,0.0,0 STARLINK-3512,1 51743U 22016AF  24149.96305464  .00000894  00000-0  74217-4 0  9994,2 51743  53.2183 345.7809 0001161  98.6846 261.4278 15.08843975126751,6917.868,95.437,540.536,538.93,0.0
51743.0,STARLINK-3512,PAYLOAD,2024-05-29 19:46:49,15.08836611,0.0001176,53.2183,341.9114,93.8455,266.2671,4.6784e-05,4.57e-06,0.0,0 STARLINK-3512,1 51743U 22016AF  24150.82418132  .00000457  00000-0  46784-4 0  9991,2 51743  53.2183 341.9114 0001176  93.8455 266.2671 15.08836611126880,6917.891,95.438,540.569,538.942,0.0
51743.0,STARLINK-3512,PAYLOAD,2024-05-29 19:46:51,15.08770062,0.0001563,53.2182,341.9121,95.1684,264.9486,0.001037,0.00016223,0.0,0 STARLINK-3512,1 51743U 22016AF  24150.82420243  .00016223  00000-0  10370-2 0  9995,2 51743  53.2182 341.9121 0001563  95.1684 264.9486 15.08770062126882,6918.094,95.442,541.04,538.878,0.0
51743.0,STARLINK-3512,PAYLOAD,2024-05-30 13:16:03,15.08841969,0.0001166,53.2179,338.6401,96.1655,263.947,0.00010771,1.427e-05,0.0,0 STARLINK-3512,1 51743U 22016AF  24151.55281728  .00001427  00000-0  10771-3 0  9995,2 51743  53.2179 338.6401 0001166  96.1655 263.9470 15.08841969125853,6917.874,95.437,540.546,538.933,0.0
51743.0,STARLINK-3512,PAYLOAD,2024-05-30 18:02:12,15.08848208,0.0001127,53.2175,337.7479,100.1292,259.9828,0.00012032,1.628e-05,0.0,0 STARLINK-3512,1 51743U 22016AF  24151.75153294  .00001628  00000-0  12032-3 0  9998,2 51743  53.2175 337.7479 0001127 100.1292 259.9828 15.08848208127020,6917.855,95.437,540.5,538.941,0.0
51743.0,STARLINK-3512,PAYLOAD,2024-05-31 21:03:46,15.08843001,0.0001223,53.2184,332.6958,74.9094,285.2034,8.2013e-05,1.018e-05,0.0,0 STARLINK-3512,1 51743U 22016AF  24152.87761745  .00001018  00000-0  82013-4 0  9998,2 51743  53.2184 332.6958 0001223  74.9094 285.2034 15.08843001127196,6917.871,95.437,540.582,538.89,0.0
51743.0,STARLINK-3512,PAYLOAD,2024-06-01 11:22:15,15.08835949,0.0001244,53.2171,330.0209,85.7665,274.347,-7.8311e-06,-4.12e-06,0.0,0 STARLINK-3512,1 51743U 22016AF  24153.47378552 -.00000412  00000-0 -78311-5 0  9991,2 51743  53.2171 330.0209 0001244  85.7665 274.3470 15.08835949127285,6917.893,95.438,540.618,538.897,0.0
